[{"OBJECT_NAME":"STARLINK-31188","OBJECT_ID":"2024-012T","EPOCH":"2026-03-09T06:58:00.265440","MEAN_MOTION":15.27570984,"ECCENTRICITY":0.00010017,"INCLINATION":43.0029,"RA_OF_ASC_NODE":167.6084,"ARG_OF_PERICENTER":257.2675,"MEAN_ANOMALY":102.8065,"EPHEMERIS_TYPE":0,"CLASSIFICATION_TYPE":"U","NORAD_CAT_ID":58804,"ELEMENT_SET_NO":999,"REV_AT_EPOCH":12117,"BSTAR":2.231982e-5,"MEAN_MOTION_DOT":3.52e-6,"MEAN_MOTION_DDOT":0},{"OBJECT_NAME":"CZ-6A DEB","OBJECT_ID":"2024-140ZM","EPOCH":"2026-03-09T08:08:19.885920","MEAN_MOTION":14.97554426,"ECCENTRICITY":0.01813088,"INCLINATION":90.2734,"RA_OF_ASC_NODE":12.4689,"ARG_OF_PERICENTER":116.477,"MEAN_ANOMALY":245.5188,"EPHEMERIS_TYPE":0,"CLASSIFICATION_TYPE":"U","NORAD_CAT_ID":61455,"ELEMENT_SET_NO":999,"REV_AT_EPOCH":8308,"BSTAR":0.00078895456,"MEAN_MOTION_DOT":0.00012969,"MEAN_MOTION_DDOT":0}]
